SL-16 R/B               
1 24298U 96051B   26200.46661385  .00000140  00000+0  10228-3 0  9995
2 24298  70.7642 256.3379 0018088 292.5551  67.3654 14.12458195540259
ORBVIEW 2 (SEASTAR)     
1 24883U 97037A   26200.42992537  .00000089  00000+0  47321-4 0  9999
2 24883  98.8719   8.3474 0002934  52.2210 307.9240 14.35567922527378
SL-16 R/B               
1 25400U 98043G   26200.84806557  .00000004  00000+0  20573-4 0  9992
2 25400  98.8380 155.2915 0009806 358.1684   1.9458 14.26073144457820
SL-16 R/B               
1 25407U 98045B   26200.58554083  .00000029  00000+0  38726-4 0  9992
2 25407  71.0102 264.1957 0007950 200.0648 160.0164 14.16204989445775
ISS (ZARYA)             
1 25544U 98067A   26200.83077020  .00004561  00000+0  90718-4 0  9991
2 25544  51.6315 138.5480 0006793 315.6343  44.4100 15.49054454576813
CZ-4B R/B               
1 25732U 99025C   26200.89398811  .00000004  00000+0  22858-4 0  9993
2 25732  98.6469 241.9066 0036400 325.9917 207.0174 14.18288160406909
OKEAN-O                 
1 25860U 99039A   26200.72150354  .00000217  00000+0  35150-4 0  9995
2 25860  97.9297 259.1429 0000886  97.6152 262.5161 14.80500120453927
SL-16 R/B               
1 25861U 99039B   26200.71311235  .00000177  00000+0  29118-4 0  9994
2 25861  97.9819 259.4803 0014695 183.4844 176.6269 14.81873168456419
DELTA 2 R/B             
1 25876U 99041E   26200.80546679  .00000736  00000+0  15753-3 0  9995
2 25876  51.7613 133.4740 0501475  18.3674 343.4665 14.12095762381691
HELIOS 1B               
1 25977U 99064A   26200.72429281  .00000550  00000+0  66172-4 0  9998
2 25977  98.1578 106.8019 0001713  49.6882 310.4483 14.88081150704891
TERRA                   
1 25994U 99068A   26200.82984250  .00000153  00000+0  40135-4 0  9994
2 25994  97.9437 249.0788 0003572 113.7703 357.4701 14.61125686414373
SL-16 R/B               
1 26070U 00006B   26200.35249965  .00000127  00000+0  88648-4 0  9991
2 26070  71.0005 180.9915 0017362 334.2430  25.7827 14.15838426367190
TITAN 4B R/B            
1 26474U 00047B   26200.84240542  .00001270  00000+0  83903-4 0  9999
2 26474  67.9873  28.6430 0045718 254.1307 105.4801 15.10346158412869
ENVISAT                 
1 27386U 02009A   26200.84959146  .00000022  00000+0  21022-4 0  9997
2 27386  98.3848 151.4426 0001315  82.6768 292.0067 14.39071302278180
IDEFIX & ARIANE 42P R/B 
1 27422U 02021B   26200.78074625  .00000081  00000+0  47310-4 0  9998
2 27422  98.5941 137.9116 0012184 153.2384 206.9430 14.31094891262919
AQUA                    
1 27424U 02022A   26200.89388117  .00000348  00000+0  79001-4 0  9995
2 27424  98.4299 170.8350 0001283 102.0464 279.1344 14.62132324288058
CZ-4B R/B               
1 27432U 02024C   26200.78784109 -.00000009  00000+0  18428-4 0  9996
2 27432  98.8681 253.3931 0050243   8.9895 105.8865 14.14568570247916
MIDORI II (ADEOS-II)    
1 27597U 02056A   26200.82861718  .00000091  00000+0  53607-4 0  9998
2 27597  98.7897 160.3695 0001294  35.0458 325.0808 14.29364291229179
H-2A R/B                
1 27601U 02056E   26200.87146061  .00000122  00000+0  56914-4 0  9995
2 27601  98.3330 156.3579 0071121 127.1576 250.4558 14.33835386233057
CZ-4B R/B               
1 28059U 03049C   26200.48134921  .00000106  00000+0  35968-4 0  9993
2 28059  98.6912 200.6159 0047920 188.0890 171.9538 14.55117628205764
CZ-2C R/B               
1 28222U 04012C   26200.72538161  .00105771  00000+0  42301-3 0  9999
2 28222  97.7037 280.3528 0010822 178.2046 181.9264 15.86177582225044
SL-16 R/B               
1 28353U 04021B   26200.75946615 -.00000144  00000+0 -50254-4 0  9991
2 28353  71.0029 315.3302 0006166 221.1547 138.9111 14.14616160141516
CZ-4B R/B               
1 28415U 04035C   26200.81541727  .00003914  00000+0  13149-3 0  9994
2 28415  97.3354 233.5281 0029614 215.5507 144.3762 15.31027948200115
CZ-2C R/B               
1 28480U 04046B   26200.72577956  .00000055  00000+0  35238-4 0  9998
2 28480  98.1910 107.4676 0140357 124.0694 237.3903 14.27034085127336
ARIANE 5 R/B            
1 28499U 04049H   26200.73208198  .00000253  00000+0  34840-4 0  9999
2 28499  98.2747  14.2481 0082512 283.3386  75.8637 14.85481679165395
CZ-2D R/B               
1 28738U 05024B   26200.50515275  .00039981  00000+0  29233-3 0  9990
2 28738  97.3473 221.6335 0003182 181.0506 179.0752 15.73126579160419
ALOS (DAICHI)           
1 28931U 06002A   26200.82943378  .00000482  00000+0  88524-4 0  9999
2 28931  98.1339 156.2996 0000921 106.0972 254.0335 14.70107044 92891
H-2A R/B                
1 28932U 06002B   26200.41408603  .00004356  00000+0  20821-3 0  9991
2 28932  98.2604 359.1746 0051027 151.7779 208.6235 15.18485106114418
RESURS-DK 1             
1 29228U 06021A   26200.55683453  .00000869  00000+0  54770-4 0  9990
2 29228  69.9302 255.7527 0007374 266.3257  93.7066 15.13327716107475
CZ-4B R/B               
1 29507U 06046C   26200.68674588  .00002112  00000+0  10592-3 0  9996
2 29507  97.5434 245.1943 0033049 166.6180 193.5938 15.18001208 80060
CZ-2C R/B               
1 31114U 07010B   26200.81843985  .00000040  00000+0  37388-4 0  9990
2 31114  98.4121 307.5772 0057731 270.0433  89.4129 14.20282506998470
