OBJECT_NAME,OBJECT_ID,EPOCH,MEAN_MOTION,ECCENTRICITY,INCLINATION,RA_OF_ASC_NODE,ARG_OF_PERICENTER,MEAN_ANOMALY,EPHEMERIS_TYPE,CLASSIFICATION_TYPE,NORAD_CAT_ID,ELEMENT_SET_NO,REV_AT_EPOCH,BSTAR,MEAN_MOTION_DOT,MEAN_MOTION_DDOT
SL-16 R/B,1996-051B,2026-07-19T11:11:55.436640,14.12458195,.0018088,70.7642,256.3379,292.5551,67.3654,0,U,24298,999,54025,.10228236E-3,.14E-5,0
ORBVIEW 2 (SEASTAR),1997-037A,2026-07-19T10:19:05.551968,14.35567922,.0002934,98.8719,8.3474,52.2210,307.9240,0,U,24883,999,52737,.47321019E-4,.89E-6,0
SL-16 R/B,1998-043G,2026-07-19T20:21:12.865248,14.26073144,.0009806,98.8380,155.2915,358.1684,1.9458,0,U,25400,999,45782,.20573E-4,.4E-7,0
SL-16 R/B,1998-045B,2026-07-19T14:03:10.727712,14.16204989,.000795,71.0102,264.1957,200.0648,160.0164,0,U,25407,999,44577,.38726E-4,.29E-6,0
ISS (ZARYA),1998-067A,2026-07-19T19:56:18.545280,15.49054454,.0006793,51.6315,138.5480,315.6343,44.4100,0,U,25544,999,57681,.90718E-4,.4561E-4,0
CZ-4B R/B,1999-025C,2026-07-19T21:27:20.572704,14.18288160,.00364,98.6469,241.9066,325.9917,207.0174,0,U,25732,999,40690,.22858E-4,.4E-7,0
OKEAN-O,1999-039A,2026-07-19T17:18:57.905856,14.80500120,.0000886,97.9297,259.1429,97.6152,262.5161,0,U,25860,999,45392,.3515E-4,.217E-5,0
SL-16 R/B,1999-039B,2026-07-19T17:06:52.907040,14.81873168,.0014695,97.9819,259.4803,183.4844,176.6269,0,U,25861,999,45641,.29118E-4,.177E-5,0
DELTA 2 R/B,1999-041E,2026-07-19T19:19:52.330656,14.12095762,.0501475,51.7613,133.4740,18.3674,343.4665,0,U,25876,999,38169,.15753E-3,.736E-5,0
HELIOS 1B,1999-064A,2026-07-19T17:22:58.898784,14.88081150,.0001713,98.1578,106.8019,49.6882,310.4483,0,U,25977,999,70489,.66172E-4,.55E-5,0
TERRA,1999-068A,2026-07-19T19:54:58.392000,14.61125686,.0003572,97.9437,249.0788,113.7703,357.4701,0,U,25994,999,41437,.40135E-4,.153E-5,0
SL-16 R/B,2000-006B,2026-07-19T08:27:35.969760,14.15838426,.00173626,71.0005,180.9915,334.2430,25.7827,0,U,26070,999,36719,.88648459E-4,.127E-5,0
TITAN 4B R/B,2000-047B,2026-07-19T20:13:03.828288,15.10346158,.0045718,67.9873,28.6430,254.1307,105.4801,0,U,26474,999,41286,.83903E-4,.127E-4,0
ENVISAT,2002-009A,2026-07-19T20:23:24.702144,14.39071302,.0001315,98.3848,151.4426,82.6768,292.0067,0,U,27386,999,27818,.21022E-4,.22E-6,0
IDEFIX & ARIANE 42P R/B,2002-021B,2026-07-19T18:44:16.476000,14.31094891,.0012184,98.5941,137.9116,153.2384,206.9430,0,U,27422,999,26291,.4731E-4,.81E-6,0
AQUA,2002-022A,2026-07-19T21:27:11.333088,14.62132324,.0001283,98.4299,170.8350,102.0464,279.1344,0,U,27424,999,28805,.79001E-4,.348E-5,0
CZ-4B R/B,2002-024C,2026-07-19T18:54:29.470176,14.14568570,.0050243,98.8681,253.3931,8.9895,105.8865,0,U,27432,999,24791,.18428E-4,-.9E-7,0
MIDORI II (ADEOS-II),2002-056A,2026-07-19T19:53:12.524352,14.29364291,.0001294,98.7897,160.3695,35.0458,325.0808,0,U,27597,999,22917,.53607E-4,.91E-6,0
H-2A R/B,2002-056E,2026-07-19T20:54:54.196704,14.33835386,.0071121,98.3330,156.3579,127.1576,250.4558,0,U,27601,999,23305,.56914E-4,.122E-5,0
CZ-4B R/B,2003-049C,2026-07-19T11:33:08.571744,14.55117628,.00479206,98.6912,200.6159,188.0890,171.9538,0,U,28059,999,20576,.35968233E-4,.106E-5,0
CZ-2C R/B,2004-012C,2026-07-19T17:24:32.971104,15.86177582,.0010822,97.7037,280.3528,178.2046,181.9264,0,U,28222,999,22504,.42301E-3,.105771E-2,0
SL-16 R/B,2004-021B,2026-07-19T18:13:37.875360,14.14616160,.0006166,71.0029,315.3302,221.1547,138.9111,0,U,28353,999,14151,-.50254E-4,-.144E-5,0
CZ-4B R/B,2004-035C,2026-07-19T19:34:12.052128,15.31027948,.0029614,97.3354,233.5281,215.5507,144.3762,0,U,28415,999,20011,.13149E-3,.3914E-4,0
CZ-2C R/B,2004-046B,2026-07-19T17:25:07.353984,14.27034085,.0140357,98.1910,107.4676,124.0694,237.3903,0,U,28480,999,12733,.35238E-4,.55E-6,0
ARIANE 5 R/B,2004-049H,2026-07-19T17:34:11.883072,14.85481679,.0082512,98.2747,14.2481,283.3386,75.8637,0,U,28499,999,16539,.3484E-4,.253E-5,0
CZ-2D R/B,2005-024B,2026-07-19T12:07:25.197600,15.73126579,.0003182,97.3473,221.6335,181.0506,179.0752,0,U,28738,999,16041,.29232726E-3,.39981E-3,0
ALOS (DAICHI),2006-002A,2026-07-19T19:54:23.078592,14.70107044,.0000921,98.1339,156.2996,106.0972,254.0335,0,U,28931,999,9289,.88524E-4,.482E-5,0
H-2A R/B,2006-002B,2026-07-19T09:56:17.032992,15.18485106,.00510273,98.2604,359.1746,151.7779,208.6235,0,U,28932,999,11441,.20821407E-3,.4356E-4,0
RESURS-DK 1,2006-021A,2026-07-19T13:21:50.503392,15.13327716,.0007374,69.9302,255.7527,266.3257,93.7066,0,U,29228,999,10747,.5477E-4,.869E-5,0
CZ-4B R/B,2006-046C,2026-07-19T16:28:54.844032,15.18001208,.0033049,97.5434,245.1943,166.6180,193.5938,0,U,29507,999,8006,.10592E-3,.2112E-4,0
CZ-2C R/B,2007-010B,2026-07-19T19:38:33.203040,14.20282506,.0057731,98.4121,307.5772,270.0433,89.4129,0,U,31114,999,99847,.37388E-4,.4E-6,0
